{"fetched_at":"2026-03-29T02:12:04Z","count":15717,"tles":[{"name":"GPS BIIF-7  (PRN 09)","line1":"1 40105U 14045A   26087.28045198  .00000041  00000+0  00000+0 0  9997","line2":"2 40105  55.2986  91.6863 0031377 119.9296 240.4172  2.00553048 84456","category":"GPS"}]}